start=new Date('2023-02-08T00:00:00.000Z').valueOf();
sats=[{"DECAY_DATE":null,"PERIAPSIS":"546.066","FILE":"3777976","EPOCH":"2023-02-07T19:50:52.755936","ECCENTRICITY":"0.00016670","GP_ID":"224742277","PERIOD":"95.592","REF_FRAME":"TEME","MEAN_ELEMENT_THEORY":"SGP4","MEAN_ANOMALY":"242.1403","RCS_SIZE":"LARGE","OBJECT_TYPE":"PAYLOAD","MEAN_MOTION_DDOT":"0.0000000000000","REV_AT_EPOCH":"10493","NORAD_CAT_ID":"48022","ARG_OF_PERICENTER":"117.9755","TLE_LINE1":"1 48022U 21024AX  23038.82699949 -.00000498  00000-0 -14521-4 0  9997","COUNTRY_CODE":"US","ELEMENT_SET_NO":"999","INCLINATION":"53.0555","LAUNCH_DATE":"2021-03-24","SITE":"AFETR","EPHEMERIS_TYPE":"0","SEMIMAJOR_AXIS":"6925.355","RA_OF_ASC_NODE":"346.0935","TLE_LINE2":"2 48022  53.0555 346.0935 0001667 117.9755 242.1403 15.06397878104933","CENTER_NAME":"EARTH","OBJECT_NAME":"STARLINK-2298","OBJECT_ID":"2021-024AX","MEAN_MOTION_DOT":"-0.00000498","BSTAR":"-0.00001452100000","MEAN_MOTION":"15.06397878","CLASSIFICATION_TYPE":"U","TIME_SYSTEM":"UTC","APOAPSIS":"548.375"},{"MEAN_MOTION_DOT":"0.00021442","OBJECT_ID":"2021-024AY","APOAPSIS":"548.058","CLASSIFICATION_TYPE":"U","TIME_SYSTEM":"UTC","BSTAR":"0.00145320000000","MEAN_MOTION":"15.06420007","TLE_LINE2":"2 48023  53.0543 348.8471 0001308  96.2957 263.8181 15.06420007104834","OBJECT_NAME":"STARLINK-2292","CENTER_NAME":"EARTH","SITE":"AFETR","EPHEMERIS_TYPE":"0","RA_OF_ASC_NODE":"348.8471","SEMIMAJOR_AXIS":"6925.287","INCLINATION":"53.0543","LAUNCH_DATE":"2021-03-24","NORAD_CAT_ID":"48023","ELEMENT_SET_NO":"999","COUNTRY_CODE":"US","TLE_LINE1":"1 48023U 21024AY  23038.15243431  .00021442  00000-0  14532-2 0  9995","ARG_OF_PERICENTER":"96.2957","OBJECT_TYPE":"PAYLOAD","RCS_SIZE":"LARGE","MEAN_ELEMENT_THEORY":"SGP4","MEAN_ANOMALY":"263.8181","REV_AT_EPOCH":"10483","MEAN_MOTION_DDOT":"0.0000000000000","EPOCH":"2023-02-07T03:39:30.324384","ECCENTRICITY":"0.00013080","REF_FRAME":"TEME","GP_ID":"224702368","PERIOD":"95.591","DECAY_DATE":null,"FILE":"3777208","PERIAPSIS":"546.246"},{"MEAN_ELEMENT_THEORY":"SGP4","MEAN_ANOMALY":"253.7683","RCS_SIZE":"LARGE","OBJECT_TYPE":"PAYLOAD","MEAN_MOTION_DDOT":"0.0000000000000","REV_AT_EPOCH":"10472","NORAD_CAT_ID":"48026","ARG_OF_PERICENTER":"106.3537","TLE_LINE1":"1 48026U 21024BB  23038.26439353  .00010252  00000-0  70568-3 0  9999","COUNTRY_CODE":"US","ELEMENT_SET_NO":"999","DECAY_DATE":null,"PERIAPSIS":"545.690","FILE":"3777208","ECCENTRICITY":"0.00020990","EPOCH":"2023-02-07T06:20:43.600992","GP_ID":"224702614","PERIOD":"95.591","REF_FRAME":"TEME","TLE_LINE2":"2 48026  53.0531 353.3397 0002099 106.3537 253.7683 15.06422877104727","CENTER_NAME":"EARTH","OBJECT_NAME":"STARLINK-2278","OBJECT_ID":"2021-024BB","MEAN_MOTION_DOT":"0.00010252","BSTAR":"0.00070568000000","MEAN_MOTION":"15.06422877","TIME_SYSTEM":"UTC","CLASSIFICATION_TYPE":"U","APOAPSIS":"548.597","INCLINATION":"53.0531","LAUNCH_DATE":"2021-03-24","EPHEMERIS_TYPE":"0","SITE":"AFETR","SEMIMAJOR_AXIS":"6925.278","RA_OF_ASC_NODE":"353.3397"},{"LAUNCH_DATE":"2021-03-24","INCLINATION":"53.0561","RA_OF_ASC_NODE":"325.2400","SEMIMAJOR_AXIS":"6925.332","SITE":"AFETR","EPHEMERIS_TYPE":"0","OBJECT_NAME":"STARLINK-2300","CENTER_NAME":"EARTH","TLE_LINE2":"2 48027  53.0561 325.2400 0001334 114.9054 245.2073 15.06405316104700","APOAPSIS":"548.121","CLASSIFICATION_TYPE":"U","TIME_SYSTEM":"UTC","MEAN_MOTION":"15.06405316","BSTAR":"0.00016793000000","MEAN_MOTION_DOT":"0.00002221","OBJECT_ID":"2021-024BC","FILE":"3777839","PERIAPSIS":"546.273","DECAY_DATE":null,"REF_FRAME":"TEME","GP_ID":"224717822","PERIOD":"95.592","ECCENTRICITY":"0.00013340","EPOCH":"2023-02-07T22:53:56.573664","REV_AT_EPOCH":"10470","MEAN_MOTION_DDOT":"0.0000000000000","OBJECT_TYPE":"PAYLOAD","RCS_SIZE":"LARGE","MEAN_ANOMALY":"245.2073","MEAN_ELEMENT_THEORY":"SGP4","ELEMENT_SET_NO":"999","COUNTRY_CODE":"US","TLE_LINE1":"1 48027U 21024BC  23038.95412701  .00002221  00000-0  16793-3 0  9991","ARG_OF_PERICENTER":"114.9054","NORAD_CAT_ID":"48027"},{"RA_OF_ASC_NODE":"280.7135","SEMIMAJOR_AXIS":"6925.335","SITE":"AFETR","EPHEMERIS_TYPE":"0","LAUNCH_DATE":"2021-03-24","INCLINATION":"53.0524","BSTAR":"0.00037578000000","MEAN_MOTION":"15.06404568","APOAPSIS":"548.114","TIME_SYSTEM":"UTC","CLASSIFICATION_TYPE":"U","OBJECT_ID":"2021-024BD","MEAN_MOTION_DOT":"0.00005321","OBJECT_NAME":"STARLINK-2264","CENTER_NAME":"EARTH","TLE_LINE2":"2 48028  53.0524 280.7135 0001321  86.2867 273.8273 15.06404568105853","GP_ID":"224741777","PERIOD":"95.592","REF_FRAME":"TEME","ECCENTRICITY":"0.00013210","EPOCH":"2023-02-07T22:30:47.974464","FILE":"3777976","PERIAPSIS":"546.285","DECAY_DATE":null,"TLE_LINE1":"1 48028U 21024BD  23038.93805526  .00005321  00000-0  37578-3 0  9999","ARG_OF_PERICENTER":"86.2867","ELEMENT_SET_NO":"999","COUNTRY_CODE":"US","NORAD_CAT_ID":"48028","REV_AT_EPOCH":"10585","MEAN_MOTION_DDOT":"0.0000000000000","RCS_SIZE":"LARGE","MEAN_ELEMENT_THEORY":"SGP4","MEAN_ANOMALY":"273.8273","OBJECT_TYPE":"PAYLOAD"},{"DECAY_DATE":null,"PERIAPSIS":"546.223","FILE":"3777976","ECCENTRICITY":"0.00013610","EPOCH":"2023-02-07T22:14:07.996416","PERIOD":"95.591","GP_ID":"224743028","REF_FRAME":"TEME","MEAN_ANOMALY":"260.1239","MEAN_ELEMENT_THEORY":"SGP4","RCS_SIZE":"LARGE","OBJECT_TYPE":"PAYLOAD","MEAN_MOTION_DDOT":"0.0000000000000","REV_AT_EPOCH":"10495","NORAD_CAT_ID":"48029","ARG_OF_PERICENTER":"99.9904","TLE_LINE1":"1 48029U 21024BE  23038.92648144  .00013796  00000-0  94285-3 0  9993","COUNTRY_CODE":"US","ELEMENT_SET_NO":"999","INCLINATION":"53.0564","LAUNCH_DATE":"2021-03-24","EPHEMERIS_TYPE":"0","SITE":"AFETR","SEMIMAJOR_AXIS":"6925.301","RA_OF_ASC_NODE":"345.3642","TLE_LINE2":"2 48029  53.0564 345.3642 0001361  99.9904 260.1239 15.06415579104951","CENTER_NAME":"EARTH","OBJECT_NAME":"STARLINK-2299","OBJECT_ID":"2021-024BE","MEAN_MOTION_DOT":"0.00013796","BSTAR":"0.00094285000000","MEAN_MOTION":"15.06415579","CLASSIFICATION_TYPE":"U","TIME_SYSTEM":"UTC","APOAPSIS":"548.108"},{"INCLINATION":"53.0545","LAUNCH_DATE":"2021-03-24","SITE":"AFETR","EPHEMERIS_TYPE":"0","RA_OF_ASC_NODE":"353.8236","SEMIMAJOR_AXIS":"6925.251","TLE_LINE2":"2 48030  53.0545 353.8236 0001747 104.7616 255.3567 15.06431792104706","OBJECT_NAME":"STARLINK-2268","CENTER_NAME":"EARTH","MEAN_MOTION_DOT":"0.00036595","OBJECT_ID":"2021-024BF","APOAPSIS":"548.326","TIME_SYSTEM":"UTC","CLASSIFICATION_TYPE":"U","MEAN_MOTION":"15.06431792","BSTAR":"0.00246080000000","DECAY_DATE":null,"FILE":"3777208","PERIAPSIS":"545.906","ECCENTRICITY":"0.00017470","EPOCH":"2023-02-07T03:46:48.261792","REF_FRAME":"TEME","GP_ID":"224703115","PERIOD":"95.590","OBJECT_TYPE":"PAYLOAD","RCS_SIZE":"LARGE","MEAN_ELEMENT_THEORY":"SGP4","MEAN_ANOMALY":"255.3567","REV_AT_EPOCH":"10470","MEAN_MOTION_DDOT":"0.0000000000000","NORAD_CAT_ID":"48030","ELEMENT_SET_NO":"999","COUNTRY_CODE":"US","TLE_LINE1":"1 48030U 21024BF  23038.15750303  .00036595  00000-0  24608-2 0  9994","ARG_OF_PERICENTER":"104.7616"},{"RA_OF_ASC_NODE":"235.6715","SEMIMAJOR_AXIS":"6925.333","SITE":"AFETR","EPHEMERIS_TYPE":"0","LAUNCH_DATE":"2021-03-24","INCLINATION":"53.0501","APOAPSIS":"548.068","TIME_SYSTEM":"UTC","CLASSIFICATION_TYPE":"U","BSTAR":"0.00025992000000","MEAN_MOTION":"15.06405018","MEAN_MOTION_DOT":"0.00003593","OBJECT_ID":"2021-024BG","OBJECT_NAME":"STARLINK-2267","CENTER_NAME":"EARTH","TLE_LINE2":"2 48031  53.0501 235.6715 0001256  90.9665 269.1468 15.06405018106429","REF_FRAME":"TEME","GP_ID":"224742028","PERIOD":"95.592","ECCENTRICITY":"0.00012560","EPOCH":"2023-02-07T20:37:16.156992","FILE":"3777976","PERIAPSIS":"546.328","DECAY_DATE":null,"ELEMENT_SET_NO":"999","COUNTRY_CODE":"US","TLE_LINE1":"1 48031U 21024BG  23038.85921478  .00003593  00000-0  25992-3 0  9995","ARG_OF_PERICENTER":"90.9665","NORAD_CAT_ID":"48031","REV_AT_EPOCH":"10642","MEAN_MOTION_DDOT":"0.0000000000000","OBJECT_TYPE":"PAYLOAD","RCS_SIZE":"LARGE","MEAN_ELEMENT_THEORY":"SGP4","MEAN_ANOMALY":"269.1468"},{"REF_FRAME":"TEME","PERIOD":"95.591","GP_ID":"224703605","EPOCH":"2023-02-07T06:02:47.730912","ECCENTRICITY":"0.00011520","FILE":"3777208","PERIAPSIS":"546.343","DECAY_DATE":null,"ELEMENT_SET_NO":"999","COUNTRY_CODE":"US","TLE_LINE1":"1 48033U 21024BJ  23038.25194133  .00002789  00000-0  20590-3 0  9996","ARG_OF_PERICENTER":"93.5854","NORAD_CAT_ID":"48033","REV_AT_EPOCH":"10485","MEAN_MOTION_DDOT":"0.0000000000000","OBJECT_TYPE":"PAYLOAD","RCS_SIZE":"LARGE","MEAN_ANOMALY":"266.5267","MEAN_ELEMENT_THEORY":"SGP4","RA_OF_ASC_NODE":"348.4011","SEMIMAJOR_AXIS":"6925.276","EPHEMERIS_TYPE":"0","SITE":"AFETR","LAUNCH_DATE":"2021-03-24","INCLINATION":"53.0554","APOAPSIS":"547.939","TIME_SYSTEM":"UTC","CLASSIFICATION_TYPE":"U","MEAN_MOTION":"15.06423705","BSTAR":"0.00020590000000","MEAN_MOTION_DOT":"0.00002789","OBJECT_ID":"2021-024BJ","OBJECT_NAME":"STARLINK-2286","CENTER_NAME":"EARTH","TLE_LINE2":"2 48033  53.0554 348.4011 0001152  93.5854 266.5267 15.06423705104851"},{"LAUNCH_DATE":"2021-03-24","INCLINATION":"53.0543","RA_OF_ASC_NODE":"345.6370","SEMIMAJOR_AXIS":"6925.336","SITE":"AFETR","EPHEMERIS_TYPE":"0","OBJECT_NAME":"STARLINK-2288","CENTER_NAME":"EARTH","TLE_LINE2":"2 48034  53.0543 345.6370 0001608  92.6052 267.5121 15.06403978104943","APOAPSIS":"548.315","CLASSIFICATION_TYPE":"U","TIME_SYSTEM":"UTC","BSTAR":"0.00013264000000","MEAN_MOTION":"15.06403978","MEAN_MOTION_DOT":"0.00001695","OBJECT_ID":"2021-024BK","FILE":"3777976","PERIAPSIS":"546.088","DECAY_DATE":null,"REF_FRAME":"TEME","GP_ID":"224742528","PERIOD":"95.592","EPOCH":"2023-02-07T20:49:12.907200","ECCENTRICITY":"0.00016080","REV_AT_EPOCH":"10494","MEAN_MOTION_DDOT":"0.0000000000000","OBJECT_TYPE":"PAYLOAD","RCS_SIZE":"LARGE","MEAN_ANOMALY":"267.5121","MEAN_ELEMENT_THEORY":"SGP4","ELEMENT_SET_NO":"999","COUNTRY_CODE":"US","TLE_LINE1":"1 48034U 21024BK  23038.86751050  .00001695  00000-0  13264-3 0  9996","ARG_OF_PERICENTER":"92.6052","NORAD_CAT_ID":"48034"}];
